DUCHIFAT-1              
1 40021U 14033M   26199.67267288  .00094147  00000+0  72509-3 0  9991
2 40021  98.0415 263.4357 0003153 232.8599 127.2374 15.71696006660689
NANOSATC-BR1            
1 40024U 14033Q   26199.81899585  .00009316  00000+0  30049-3 0  9998
2 40024  98.0707 235.0319 0005116  87.9134 272.2692 15.32398569658821
QB50P1                  
1 40025U 14033R   26199.31896595  .00004488  00000+0  21986-3 0  9997
2 40025  98.0968 212.6585 0010487 115.5699 244.6619 15.18693321657759
DTUSAT-2                
1 40030U 14033W   26199.73837234  .00003519  00000+0  19028-3 0  9992
2 40030  98.0881 199.4794 0009544 121.6142 238.6021 15.15377493657460
QB50P2                  
1 40032U 14033Y   26199.79558119  .00003553  00000+0  19124-3 0  9997
2 40032  98.0769 198.6548 0009228  73.8940 286.3306 15.15534284657456
PERSEUS-M1              
1 40039U 14033AF  26199.81388235  .00000545  00000+0  54381-4 0  9990
2 40039  97.9655 144.4689 0011156 184.3661 175.7464 14.95722381655369
POLYITAN-1              
1 40042U 14033AJ  26199.04085337  .00010956  00000+0  33245-3 0  9998
2 40042  98.0931 228.2449 0007650  55.8959 304.3007 15.34281566658324
TIGRISAT                
1 40043U 14033AK  26199.37617711  .00000693  00000+0  85549-4 0  9994
2 40043  97.7869 348.6813 0048362 333.7651  26.1115 14.85254459650254
CANX-4                  
1 40055U 14034C   26199.90006317  .00000388  00000+0  57095-4 0  9997
2 40055  98.3078  76.3714 0011376 269.5009  90.4899 14.81314671649226
CANX-5                  
1 40056U 14034D   26199.62793568  .00000363  00000+0  53855-4 0  9991
2 40056  98.3080  76.1348 0011373 270.7559  89.2349 14.81331659639996
GONETS-M 10             
1 40063U 14036C   26199.94580179 -.00000060  00000+0 -50423-3 0  9991
2 40063  82.5120 287.9503 0022898  74.6807 285.6802 12.42946043546199
METEOR-M 2              
1 40069U 14037A   26199.89140337  .00000003  00000+0  20841-4 0  9997
2 40069  98.5139 174.5107 0004906 314.3539  45.7237 14.21470198623824
DX1                     
1 40071U 14037C   26199.92356222  .00001274  00000+0  13837-3 0  9993
2 40071  98.3889 163.5564 0007425 157.8309 202.3229 14.90069399650832
UKUBE-1                 
1 40074U 14037F   26199.30162791  .00004593  00000+0  25748-3 0  9995
2 40074  98.4246 205.8544 0003190  82.4039 277.7553 15.13977056653269
GAOFEN-2                
1 40118U 14049A   26199.93279884  .00000232  00000+0  36886-4 0  9990
2 40118  98.0090 264.1073 0008491 124.5338 235.6677 14.80929233643935
BRITE-PL2 (HEWELIUSZ)   
1 40119U 14049B   26199.83808339  .00000663  00000+0  66530-4 0  9990
2 40119  97.9121 312.0880 0013981  10.3613 349.7893 14.94691922646178
CBERS 4                 
1 40336U 14079A   26199.96061059 -.00000042  00000+0  50363-7 0  9990
2 40336  98.3510 255.7926 0000641  62.0167 298.1084 14.35516441608519
SMAP                    
1 40376U 15003A   26199.94298108  .00000176  00000+0  43026-4 0  9999
2 40376  98.1285 206.5891 0001622  93.5950 266.5438 14.63390896612268
GONETS-M 11             
1 40552U 15020A   26199.96588742  .00000067  00000+0  41210-3 0  9993
2 40552  82.4869  11.1848 0015305 294.4837  65.4646 12.42878825512689
GONETS-M 12             
1 40553U 15020B   26199.93903878 -.00000019  00000+0 -20716-3 0  9999
2 40553  82.4901  12.3337 0014219 278.2476  81.6991 12.42892022512672
GONETS-M 13             
1 40554U 15020C   26199.91304944  .00000011  00000+0  90605-5 0  9993
2 40554  82.4865  10.9558 0012813 262.0717  97.8909 12.42871868512648
DMC3-FM1                
1 40715U 15032A   26199.92592713  .00000930  00000+0  11298-3 0  9998
2 40715  97.6419  63.8499 0004518 324.5541  35.5374 14.85772619594629
DMC3-FM2                
1 40716U 15032B   26199.94784709  .00000012  00000+0  72654-5 0  9995
2 40716  97.6471  65.4664 0005207 329.3282  30.7629 14.85776172594629
DMC3-FM3                
1 40717U 15032C   26199.90405869  .00000115  00000+0  19126-4 0  9997
2 40717  97.6521  67.1972 0004459 330.9435  29.1532 14.85763782594621
CARBONITE 1 (CBNT-1)    
1 40718U 15032D   26199.88099267  .00000747  00000+0  96481-4 0  9996
2 40718  97.6524  16.6238 0014155 184.5148 175.5941 14.83674472594048
LILACSAT-2              
1 40908U 15049K   26199.86579248  .00010571  00000+0  17436-3 0  9993
2 40908  97.4623 237.9281 0008572 130.7952 229.4046 15.52440772600667
